{
  "type": "FeatureCollection",
  "features": [
    {
      "type": "Feature",
      "properties": {
        "norad_id": 40376,
        "name": "SMAP",
        "group": "resource",
        "lat": -62.34928208331879,
        "lon": 169.91193183654846,
        "alt_km": 690.2823899057985,
        "timestamp": "2025-12-27T05:29:38.851375+00:00",
        "meta_object_name": "SMAP",
        "meta_object_id": "2015-003A",
        "meta_epoch": "2025-12-26T21:49:15.577248",
        "meta_mean_motion": 14.63362931,
        "meta_eccentricity": 0.00012366,
        "meta_inclination": 98.1291,
        "meta_ra_of_asc_node": 5.4289,
        "meta_arg_of_pericenter": 92.6272,
        "meta_mean_anomaly": 267.5071,
        "meta_ephemeris_type": 0,
        "meta_classification_type": "U",
        "meta_norad_cat_id": 40376,
        "meta_element_set_no": 999,
        "meta_rev_at_epoch": 58242,
        "meta_bstar": 0.00014019906,
        "meta_mean_motion_dot": 6.77e-06,
        "meta_mean_motion_ddot": 0,
        "tle_line1": "1 40376U 15003A   25360.90920807  .00000677  00000+0  14020-3 0  9999",
        "tle_line2": "2 40376  98.1291   5.4289 0001236  92.6272 267.5071 14.63362931582427"
      },
      "geometry": {
        "type": "Point",
        "coordinates": [
          169.91193183654846,
          -62.34928208331879
        ]
      }
    },
    {
      "type": "Feature",
      "properties": {
        "norad_id": 40536,
        "name": "KOMPSAT-3A",
        "group": "resource",
        "lat": -5.908195868734268,
        "lon": 155.5821468487168,
        "alt_km": 436.7322326719668,
        "timestamp": "2025-12-27T05:29:38.851385+00:00",
        "meta_object_name": "KOMPSAT-3A",
        "meta_object_id": "2015-014A",
        "meta_epoch": "2025-12-26T22:28:22.276416",
        "meta_mean_motion": 15.44478084,
        "meta_eccentricity": 0.00056602,
        "meta_inclination": 97.6806,
        "meta_ra_of_asc_node": 336.0733,
        "meta_arg_of_pericenter": 96.7324,
        "meta_mean_anomaly": 263.4568,
        "meta_ephemeris_type": 0,
        "meta_classification_type": "U",
        "meta_norad_cat_id": 40536,
        "meta_element_set_no": 999,
        "meta_rev_at_epoch": 59514,
        "meta_bstar": 0.00049439855,
        "meta_mean_motion_dot": 0.00022856,
        "meta_mean_motion_ddot": 0,
        "tle_line1": "1 40536U 15014A   25360.93636894  .00022856  00000+0  49440-3 0  9999",
        "tle_line2": "2 40536  97.6806 336.0733 0005660  96.7324 263.4568 15.44478084595142"
      },
      "geometry": {
        "type": "Point",
        "coordinates": [
          155.5821468487168,
          -5.908195868734268
        ]
      }
    },
    {
      "type": "Feature",
      "properties": {
        "norad_id": 40697,
        "name": "SENTINEL-2A",
        "group": "resource",
        "lat": -36.76428613960912,
        "lon": -112.91219360589616,
        "alt_km": 795.8094538669475,
        "timestamp": "2025-12-27T05:29:38.851395+00:00",
        "meta_object_name": "SENTINEL-2A",
        "meta_object_id": "2015-028A",
        "meta_epoch": "2025-12-26T23:26:50.740224",
        "meta_mean_motion": 14.30810675,
        "meta_eccentricity": 0.00010525,
        "meta_inclination": 98.5723,
        "meta_ra_of_asc_node": 73.3101,
        "meta_arg_of_pericenter": 89.0053,
        "meta_mean_anomaly": 271.1251,
        "meta_ephemeris_type": 0,
        "meta_classification_type": "U",
        "meta_norad_cat_id": 40697,
        "meta_element_set_no": 999,
        "meta_rev_at_epoch": 54910,
        "meta_bstar": 2.9448126e-05,
        "meta_mean_motion_dot": 3.4e-07,
        "meta_mean_motion_ddot": 0,
        "tle_line1": "1 40697U 15028A   25360.97697616  .00000034  00000+0  29448-4 0  9996",
        "tle_line2": "2 40697  98.5723  73.3101 0001052  89.0053 271.1251 14.30810675549103"
      },
      "geometry": {
        "type": "Point",
        "coordinates": [
          -112.91219360589616,
          -36.76428613960912
        ]
      }
    },
    {
      "type": "Feature",
      "properties": {
        "norad_id": 40701,
        "name": "GAOFEN-8",
        "group": "resource",
        "lat": 51.96437036389115,
        "lon": 10.027694613804893,
        "alt_km": 437.91029696079113,
        "timestamp": "2025-12-27T05:29:38.851405+00:00",
        "meta_object_name": "GAOFEN-8",
        "meta_object_id": "2015-030A",
        "meta_epoch": "2025-12-26T22:42:08.417664",
        "meta_mean_motion": 15.39075853,
        "meta_eccentricity": 0.00115541,
        "meta_inclination": 97.6903,
        "meta_ra_of_asc_node": 179.7839,
        "meta_arg_of_pericenter": 89.0982,
        "meta_mean_anomaly": 271.1586,
        "meta_ephemeris_type": 0,
        "meta_classification_type": "U",
        "meta_norad_cat_id": 40701,
        "meta_element_set_no": 999,
        "meta_rev_at_epoch": 58489,
        "meta_bstar": 0.00049236798,
        "meta_mean_motion_dot": 0.00019038,
        "meta_mean_motion_ddot": 0,
        "tle_line1": "1 40701U 15030A   25360.94593076  .00019038  00000+0  49237-3 0  9998",
        "tle_line2": "2 40701  97.6903 179.7839 0011554  89.0982 271.1586 15.39075853584894"
      },
      "geometry": {
        "type": "Point",
        "coordinates": [
          10.027694613804893,
          51.96437036389115
        ]
      }
    },
    {
      "type": "Feature",
      "properties": {
        "norad_id": 40718,
        "name": "CARBONITE 1 (CBNT-1)",
        "group": "resource",
        "lat": 20.592644346791435,
        "lon": 178.74485875388325,
        "alt_km": 624.8046384241688,
        "timestamp": "2025-12-27T05:29:38.851415+00:00",
        "meta_object_name": "CARBONITE 1 (CBNT-1)",
        "meta_object_id": "2015-032D",
        "meta_epoch": "2025-12-26T22:55:20.444736",
        "meta_mean_motion": 14.8281365,
        "meta_eccentricity": 0.00153898,
        "meta_inclination": 97.6407,
        "meta_ra_of_asc_node": 181.3743,
        "meta_arg_of_pericenter": 135.6419,
        "meta_mean_anomaly": 224.6031,
        "meta_ephemeris_type": 0,
        "meta_classification_type": "U",
        "meta_norad_cat_id": 40718,
        "meta_element_set_no": 999,
        "meta_rev_at_epoch": 56381,
        "meta_bstar": 0.00052142071,
        "meta_mean_motion_dot": 4.177e-05,
        "meta_mean_motion_ddot": 0,
        "tle_line1": "1 40718U 15032D   25360.95509774  .00004177  00000+0  52142-3 0  9998",
        "tle_line2": "2 40718  97.6407 181.3743 0015389 135.6419 224.6031 14.82813650563816"
      },
      "geometry": {
        "type": "Point",
        "coordinates": [
          178.74485875388325,
          20.592644346791435
        ]
      }
    },
    {
      "type": "Feature",
      "properties": {
        "norad_id": 40878,
        "name": "YAOGAN-27",
        "group": "resource",
        "lat": 36.60052348187528,
        "lon": -17.414464730314375,
        "alt_km": 1201.843327684467,
        "timestamp": "2025-12-27T05:29:38.851426+00:00",
        "meta_object_name": "YAOGAN-27",
        "meta_object_id": "2015-040A",
        "meta_epoch": "2025-12-26T23:49:53.912640",
        "meta_mean_motion": 13.16059981,
        "meta_eccentricity": 0.00075948,
        "meta_inclination": 100.1026,
        "meta_ra_of_asc_node": 349.9687,
        "meta_arg_of_pericenter": 251.3279,
        "meta_mean_anomaly": 108.701,
        "meta_ephemeris_type": 0,
        "meta_classification_type": "U",
        "meta_norad_cat_id": 40878,
        "meta_element_set_no": 999,
        "meta_rev_at_epoch": 49501,
        "meta_bstar": -0.0011290562,
        "meta_mean_motion_dot": -4.71e-06,
        "meta_mean_motion_ddot": 0,
        "tle_line1": "1 40878U 15040A   25360.99298510 -.00000471  00000+0 -11291-2 0  9995",
        "tle_line2": "2 40878 100.1026 349.9687 0007594 251.3279 108.7010 13.16059981495018"
      },
      "geometry": {
        "type": "Point",
        "coordinates": [
          -17.414464730314375,
          36.60052348187528
        ]
      }
    },
    {
      "type": "Feature",
      "properties": {
        "norad_id": 40894,
        "name": "GAOFEN-9 01",
        "group": "resource",
        "lat": -74.09138594121102,
        "lon": 67.70401197406495,
        "alt_km": 620.2749974855669,
        "timestamp": "2025-12-27T05:29:38.851436+00:00",
        "meta_object_name": "GAOFEN-9 01",
        "meta_object_id": "2015-047A",
        "meta_epoch": "2025-12-26T23:21:19.145664",
        "meta_mean_motion": 14.82457738,
        "meta_eccentricity": 0.00272228,
        "meta_inclination": 97.6525,
        "meta_ra_of_asc_node": 39.3128,
        "meta_arg_of_pericenter": 348.0882,
        "meta_mean_anomaly": 11.9685,
        "meta_ephemeris_type": 0,
        "meta_classification_type": "U",
        "meta_norad_cat_id": 40894,
        "meta_element_set_no": 999,
        "meta_rev_at_epoch": 55467,
        "meta_bstar": 0.00017564179,
        "meta_mean_motion_dot": 1.366e-05,
        "meta_mean_motion_ddot": 0,
        "tle_line1": "1 40894U 15047A   25360.97313826  .00001366  00000+0  17564-3 0  9998",
        "tle_line2": "2 40894  97.6525  39.3128 0027222 348.0882  11.9685 14.82457738554671"
      },
      "geometry": {
        "type": "Point",
        "coordinates": [
          67.70401197406495,
          -74.09138594121102
        ]
      }
    }
  ]
}